[{"OBJECT_NAME":"STARLINK-35201","OBJECT_ID":"2025-211N","EPOCH":"2026-03-09T16:36:10.677600","MEAN_MOTION":15.05678627,"ECCENTRICITY":0.00012095,"INCLINATION":97.602,"RA_OF_ASC_NODE":114.091,"ARG_OF_PERICENTER":89.6272,"MEAN_ANOMALY":270.5094,"EPHEMERIS_TYPE":0,"CLASSIFICATION_TYPE":"U","NORAD_CAT_ID":65664,"ELEMENT_SET_NO":999,"REV_AT_EPOCH":2704,"BSTAR":0.00061175801,"MEAN_MOTION_DOT":8.784e-5,"MEAN_MOTION_DDOT":0},{"OBJECT_NAME":"SL-8 R\/B","OBJECT_ID":"1968-040B","EPOCH":"2026-03-09T18:37:46.369632","MEAN_MOTION":15.03260494,"ECCENTRICITY":0.00239141,"INCLINATION":74.0322,"RA_OF_ASC_NODE":313.5182,"ARG_OF_PERICENTER":137.361,"MEAN_ANOMALY":222.9441,"EPHEMERIS_TYPE":0,"CLASSIFICATION_TYPE":"U","NORAD_CAT_ID":3230,"ELEMENT_SET_NO":999,"REV_AT_EPOCH":9002,"BSTAR":0.00025747843,"MEAN_MOTION_DOT":3.469e-5,"MEAN_MOTION_DDOT":0}]
